BY04-0825a
1 98247U          26237.16666667  .00015724  00000-0  97477-3 0 00014
2 98247 097.5373 310.9360 0011309 278.1232 340.7230 15.09766181000011

JAMX-0825a
1 98248U          26237.16666667  .00015724  00000-0  97477-3 0 00015
2 98248 097.5373 310.9360 0011309 278.1232 340.7230 15.09766181000012



BY04-0825b
1 98247U          26237.16675926  .00015724  00000-0  97477-3 0 00012
2 98247 097.5373 310.9694 0011309 278.1232 340.7230 15.09766181000011

JAMX-0825b
1 98248U          26237.16675926  .00015724  00000-0  97477-3 0 00013
2 98248 097.5373 310.9694 0011309 278.1232 340.7230 15.09766181000012